HORIZONS-3E             
1 43633U 18074B   26157.74278890 -.00000017  00000+0  00000+0 0  9992
2 43633   0.0179 156.5816 0000853 119.5470  55.4301  1.00271679 28239
AEHF-4 (USA 288)        
1 43651U 18079A   26157.83323156 -.00000262  00000+0  00000+0 0  9995
2 43651   1.4289   3.0416 0060701 357.0809 127.4563  1.00277069 28195
BEIDOU-3 G1             
1 43683U 18085A   26157.80688478 -.00000094  00000+0  00000+0 0  9998
2 43683   2.8415  97.6665 0008568 346.3409 261.6753  1.00271915 27950
GSAT-29                 
1 43698U 18089A   26157.85744347  .00000099  00000+0  00000+0 0  9995
2 43698   0.0436 114.1200 0003667 318.4938 186.3676  1.00271271 27683
ES'HAIL 2               
1 43700U 18090A   26157.89851705  .00000158  00000+0  00000+0 0  9998
2 43700   0.0137  28.1745 0001924  82.6526 133.7487  1.00273537 27571
GEO-KOMPSAT-2A          
1 43823U 18100A   26157.87194404 -.00000330  00000+0  00000+0 0  9993
2 43823   0.0494 134.5786 0002400 308.1886 254.6842  1.00271878 27524
GSAT-11                 
1 43824U 18100B   26157.83917726 -.00000063  00000+0  00000+0 0  9993
2 43824   0.0534 256.8637 0007954 188.4654 186.0365  1.00271683 27379
GSAT-7A                 
1 43864U 18105A   26157.90411294  .00000040  00000+0  00000+0 0  9993
2 43864   0.0206 257.9568 0002333 160.7786 224.8753  1.00269282 27340
COSMOS 2533             
1 43867U 18107A   26157.83150345 -.00000025  00000+0  00000+0 0  9991
2 43867   0.0456  94.8121 0000554   1.8117 167.9631  1.00273347 27348
TJS-3                   
1 43874U 18110A   26157.78246538 -.00000202  00000+0  00000+0 0  9994
2 43874   2.5172  80.6178 0001961  72.0034 172.5007  1.00273775 27315
ZHONGXING-2D            
1 43920U 19001A   26157.87229071 -.00000323  00000+0  00000+0 0  9993
2 43920   0.0457  86.1937 0000820 288.4444 324.6904  1.00270081 53975
HELLAS-SAT 4 & SGS-1    
1 44034U 19007A   26157.78306527  .00000166  00000+0  00000+0 0  9992
2 44034   0.0639 134.2111 0005414   6.4039  75.5065  1.00267425 27266
GSAT-31                 
1 44035U 19007B   26157.90106262  .00000140  00000+0  00000+0 0  9993
2 44035   0.0906 261.8477 0002131 107.7480 257.9334  1.00267938 26863
NUSANTARA SATU          
1 44048U 19009A   26156.73473477 -.00000222  00000+0  00000+0 0  9996
2 44048   0.0406 143.4899 0004422 331.2363 189.9576  1.00270076 26650
ZHONGXING-6C            
1 44067U 19012A   26157.87229071 -.00000322  00000+0  00000+0 0  9997
2 44067   0.1384  80.3073 0013463 330.1408 289.2838  1.00269647 26638
WGS 10 (USA 291)        
1 44071U 19014A   26157.14551177  .00000059  00000+0  00000+0 0  9995
2 44071   0.0171 358.3444 0000418  31.8106 337.1138  1.00273431 26500
TIANLIAN 2-01           
1 44076U 19017A   26157.86176535 -.00000093  00000+0  00000+0 0  9992
2 44076   0.5124  83.1271 0000915   3.3549 196.0553  1.00271640 26543
ARABSAT-6A              
1 44186U 19021A   26157.85259013  .00000167  00000+0  00000+0 0  9992
2 44186   0.0532  14.3483 0000765  46.8686 171.4836  1.00273521 26058
BEIDOU-3 IGSO-1         
1 44204U 19023A   26155.58793341 -.00000211  00000+0  00000+0 0  9991
2 44204  58.6768  37.7810 0025470 225.7549 318.3782  1.00295778  7080
BEIDOU-2 G8             
1 44231U 19027A   26157.87515073 -.00000233  00000+0  00000+0 0  9997
2 44231   1.6315  74.4884 0010646 284.4987 355.8594  1.00275118 25973
YAMAL 601               
1 44307U 19031A   26157.49972509  .00000133  00000+0  00000+0 0  9993
2 44307   0.0175   1.5693 0002527  78.4074  43.8529  1.00273346 25827
AT&T T-16               
1 44333U 19034A   26157.82647154 -.00000102  00000+0  00000+0 0  9994
2 44333   0.0217  62.7964 0000542 233.5749 155.5500  1.00270379 25532
EUTELSAT 7C             
1 44334U 19034B   26157.84791012  .00000063  00000+0  00000+0 0  9995
2 44334   0.0741 176.0913 0003345 240.0026 151.4210  1.00277492  6730
BEIDOU-3 IGSO-2         
1 44337U 19035A   26157.58006347 -.00000062  00000+0  00000+0 0  9990
2 44337  55.2446 158.9549 0039839 216.2059 208.5586  1.00270343 25569
COSMOS 2539             
1 44457U 19048A   26157.63499046  .00000094  00000+0  00000+0 0  9999
2 44457   0.0370  96.4456 0000415  52.5217 346.6880  1.00269386 25122
EDRS-C                  
1 44475U 19049A   26155.87847801 -.00000250  00000+0  00000+0 0  9995
2 44475   0.0048  11.5532 0001256  89.2326 251.2899  1.00271120 25084
INTELSAT 39 (IS-39)     
1 44476U 19049B   26157.63121132  .00000048  00000+0  00000+0 0  9998
2 44476   0.0173 316.2772 0000278 327.6995 260.2628  1.00266909 25022
AMOS-17                 
1 44479U 19050A   26157.56472529  .00000123  00000+0  00000+0 0  9998
2 44479   0.0195 316.7490 0001774 149.9449   8.6027  1.00274219 25088
AEHF-5 (USA 292)        
1 44481U 19051A   26157.87108438 -.00000244  00000+0  00000+0 0  9996
2 44481   1.4630 335.3516 0067074   1.1192 325.4477  1.00268462 25155
EUTELSAT 5 WEST B       
1 44624U 19067A   26157.84553830 -.00000028  00000+0  00000+0 0  9999
2 44624   0.0641 343.0824 0003250  93.2479 118.3309  1.00272075 24332
TJS-4                   
1 44637U 19070A   26157.86306536 -.00000156  00000+0  00000+0 0  9990
2 44637   0.0167 280.9321 0004993 118.5967 249.9825  1.00270728 24436
BEIDOU-3 IGSO-3         
1 44709U 19073A   26136.81046384 -.00000217  00000+0  00000+0 0  9995
2 44709  54.8566 281.2355 0042953 189.4588 170.3676  1.00246251 24144
