OBJECT_NAME,OBJECT_ID,EPOCH,MEAN_MOTION,ECCENTRICITY,INCLINATION,RA_OF_ASC_NODE,ARG_OF_PERICENTER,MEAN_ANOMALY,EPHEMERIS_TYPE,CLASSIFICATION_TYPE,NORAD_CAT_ID,ELEMENT_SET_NO,REV_AT_EPOCH,BSTAR,MEAN_MOTION_DOT,MEAN_MOTION_DDOT
HORIZONS-3E,2018-074B,2026-06-06T17:49:36.960960,1.00271679,.0000853,0.0179,156.5816,119.5470,55.4301,0,U,43633,999,2823,0,-.17E-6,0
AEHF-4 (USA 288),2018-079A,2026-06-06T19:59:51.206784,1.00277069,.0060701,1.4289,3.0416,357.0809,127.4563,0,U,43651,999,2819,0,-.262E-5,0
BEIDOU-3 G1,2018-085A,2026-06-06T19:21:54.844992,1.00271915,.0008568,2.8415,97.6665,346.3409,261.6753,0,U,43683,999,2795,0,-.94E-6,0
GSAT-29,2018-089A,2026-06-06T20:34:43.115808,1.00271271,.0003667,0.0436,114.1200,318.4938,186.3676,0,U,43698,999,2768,0,.99E-6,0
ES'HAIL 2,2018-090A,2026-06-06T21:33:51.873120,1.00273537,.0001924,0.0137,28.1745,82.6526,133.7487,0,U,43700,999,2757,0,.158E-5,0
GEO-KOMPSAT-2A,2018-100A,2026-06-06T20:55:35.965056,1.00271878,.00024,0.0494,134.5786,308.1886,254.6842,0,U,43823,999,2752,0,-.33E-5,0
GSAT-11,2018-100B,2026-06-06T20:08:24.915264,1.00271683,.0007954,0.0534,256.8637,188.4654,186.0365,0,U,43824,999,2737,0,-.63E-6,0
GSAT-7A,2018-105A,2026-06-06T21:41:55.358016,1.00269282,.0002333,0.0206,257.9568,160.7786,224.8753,0,U,43864,999,2734,0,.4E-6,0
COSMOS 2533,2018-107A,2026-06-06T19:57:21.898080,1.00273347,.0000554,0.0456,94.8121,1.8117,167.9631,0,U,43867,999,2734,0,-.25E-6,0
TJS-3,2018-110A,2026-06-06T18:46:45.008832,1.00273775,.0001961,2.5172,80.6178,72.0034,172.5007,0,U,43874,999,2731,0,-.202E-5,0
ZHONGXING-2D,2019-001A,2026-06-06T20:56:05.917344,1.00270081,.000082,0.0457,86.1937,288.4444,324.6904,0,U,43920,999,5397,0,-.323E-5,0
HELLAS-SAT 4 & SGS-1,2019-007A,2026-06-06T18:47:36.839328,1.00267425,.0005414,0.0639,134.2111,6.4039,75.5065,0,U,44034,999,2726,0,.166E-5,0
GSAT-31,2019-007B,2026-06-06T21:37:31.810368,1.00267938,.0002131,0.0906,261.8477,107.7480,257.9334,0,U,44035,999,2686,0,.14E-5,0
NUSANTARA SATU,2019-009A,2026-06-05T17:38:01.084128,1.00270076,.00044228,0.0406,143.4899,331.2363,189.9576,0,U,44048,999,2665,0,-.222E-5,0
ZHONGXING-6C,2019-012A,2026-06-06T20:56:05.917344,1.00269647,.0013463,0.1384,80.3073,330.1408,289.2838,0,U,44067,999,2663,0,-.322E-5,0
WGS 10 (USA 291),2019-014A,2026-06-06T03:29:32.216928,1.00273431,.00004186,0.0171,358.3444,31.8106,337.1138,0,U,44071,999,2650,0,.59E-6,0
TIANLIAN 2-01,2019-017A,2026-06-06T20:40:56.526240,1.00271640,.0000915,0.5124,83.1271,3.3549,196.0553,0,U,44076,999,2654,0,-.93E-6,0
ARABSAT-6A,2019-021A,2026-06-06T20:27:43.787232,1.00273521,.0000765,0.0532,14.3483,46.8686,171.4836,0,U,44186,999,2605,0,.167E-5,0
BEIDOU-3 IGSO-1,2019-023A,2026-06-04T14:06:37.446624,1.00295778,.00254705,58.6768,37.7810,225.7549,318.3782,0,U,44204,999,708,0,-.211E-5,0
BEIDOU-2 G8,2019-027A,2026-06-06T21:00:13.023072,1.00275118,.0010646,1.6315,74.4884,284.4987,355.8594,0,U,44231,999,2597,0,-.233E-5,0
YAMAL 601,2019-031A,2026-06-06T11:59:36.247776,1.00273346,.00025273,0.0175,1.5693,78.4074,43.8529,0,U,44307,999,2582,0,.133E-5,0
AT&T T-16,2019-034A,2026-06-06T19:50:07.141056,1.00270379,.0000542,0.0217,62.7964,233.5749,155.5500,0,U,44333,999,2553,0,-.102E-5,0
EUTELSAT 7C,2019-034B,2026-06-06T20:20:59.434368,1.00277492,.0003345,0.0741,176.0913,240.0026,151.4210,0,U,44334,999,673,0,.63E-6,0
BEIDOU-3 IGSO-2,2019-035A,2026-06-06T13:55:17.483808,1.00270343,.00398392,55.2446,158.9549,216.2059,208.5586,0,U,44337,999,2556,0,-.62E-6,0
COSMOS 2539,2019-048A,2026-06-06T15:14:23.175744,1.00269386,.0000415,0.0370,96.4456,52.5217,346.6880,0,U,44457,999,2512,0,.94E-6,0
EDRS-C,2019-049A,2026-06-04T21:05:00.500064,1.00271120,.0001256,0.0048,11.5532,89.2326,251.2899,0,U,44475,999,2508,0,-.25E-5,0
INTELSAT 39 (IS-39),2019-049B,2026-06-06T15:08:56.658048,1.00266909,.0000278,0.0173,316.2772,327.6995,260.2628,0,U,44476,999,2502,0,.48E-6,0
AMOS-17,2019-050A,2026-06-06T13:33:12.265056,1.00274219,.0001774,0.0195,316.7490,149.9449,8.6027,0,U,44479,999,2508,0,.123E-5,0
AEHF-5 (USA 292),2019-051A,2026-06-06T20:54:21.690432,1.00268462,.0067074,1.4630,335.3516,1.1192,325.4477,0,U,44481,999,2515,0,-.244E-5,0
EUTELSAT 5 WEST B,2019-067A,2026-06-06T20:17:34.509120,1.00272075,.000325,0.0641,343.0824,93.2479,118.3309,0,U,44624,999,2433,0,-.28E-6,0
TJS-4,2019-070A,2026-06-06T20:42:48.847104,1.00270728,.0004993,0.0167,280.9321,118.5967,249.9825,0,U,44637,999,2443,0,-.156E-5,0
BEIDOU-3 IGSO-3,2019-073A,2026-05-16T19:27:04.075776,1.00246251,.0042953,54.8566,281.2355,189.4588,170.3676,0,U,44709,999,2414,0,-.217E-5,0
